COSMOS 2251 DEB         
1 34026U 93036HM  17345.80404031  .00000251  00000-0  23714-3 0  9994
2 34026  73.7665 124.7470 0362728  77.6823  31.5649 13.59722451437569
